{"type": "FeatureCollection", "features": [ {"type": "Feature", "properties": {"norad_id": 34375, "name": "IRIDIUM 33 DEB", "group": "iridium-33-debris", "lat": 63.89838002534775, "lon": -166.69954440555225, "alt_km": 823.0301779728416, "timestamp": "2025-12-04T13:52:00.826753+00:00", "meta": {"OBJECT_NAME": "IRIDIUM 33 DEB", "OBJECT_ID": "1997-051FT", "EPOCH": "2025-12-04T02:19:13.605600", "MEAN_MOTION": 14.17969108, "ECCENTRICITY": 0.01025635, "INCLINATION": 86.4331, "RA_OF_ASC_NODE": 186.18, "ARG_OF_PERICENTER": 153.93, "MEAN_ANOMALY": 337.07, "EPHEMERIS_TYPE": 0, "CLASSIFICATION_TYPE": "U", "NORAD_CAT_ID": 34375, "ELEMENT_SET_NO": 999, "REV_AT_EPOCH": 86589, "BSTAR": 0.00070164929, "MEAN_MOTION_DOT": 1.531e-05, "MEAN_MOTION_DDOT": 0}, "tle": {"line1": "1 34375U 97051FT  25338.09668525  .00001531  00000+0  70165-3 0  9997", "line2": "2 34375  86.4331 186.1800 0102563 153.9300 337.0700 14.17969108865893"}}, "geometry": {"type": "Point", "coordinates": [-166.69954440555225, 63.89838002534775]}}, {"type": "Feature", "properties": {"norad_id": 34376, "name": "IRIDIUM 33 DEB", "group": "iridium-33-debris", "lat": -32.257824617255935, "lon": -167.44939669082424, "alt_km": 674.0370498071861, "timestamp": "2025-12-04T13:52:00.826764+00:00", "meta": {"OBJECT_NAME": "IRIDIUM 33 DEB", "OBJECT_ID": "1997-051FU", "EPOCH": "2025-12-04T06:19:49.812672", "MEAN_MOTION": 14.62377993, "ECCENTRICITY": 0.00261889, "INCLINATION": 86.2991, "RA_OF_ASC_NODE": 10.3504, "ARG_OF_PERICENTER": 195.5918, "MEAN_ANOMALY": 164.449, "EPHEMERIS_TYPE": 0, "CLASSIFICATION_TYPE": "U", "NORAD_CAT_ID": 34376, "ELEMENT_SET_NO": 999, "REV_AT_EPOCH": 87883, "BSTAR": 0.0035031182, "MEAN_MOTION_DOT": 0.00017843, "MEAN_MOTION_DDOT": 0}, "tle": {"line1": "1 34376U 97051FU  25338.26377098  .00017843  00000+0  35031-2 0  9994", "line2": "2 34376  86.2991  10.3504 0026188 195.5918 164.4490 14.62377993878839"}}, "geometry": {"type": "Point", "coordinates": [-167.44939669082424, -32.257824617255935]}}, {"type": "Feature", "properties": {"norad_id": 34486, "name": "IRIDIUM 33 DEB", "group": "iridium-33-debris", "lat": 0.30858464977682215, "lon": -164.22846312619953, "alt_km": 577.8368098249603, "timestamp": "2025-12-04T13:52:00.826774+00:00", "meta": {"OBJECT_NAME": "IRIDIUM 33 DEB", "OBJECT_ID": "1997-051GB", "EPOCH": "2025-12-04T03:41:51.118368", "MEAN_MOTION": 14.951815, "ECCENTRICITY": 0.00130231, "INCLINATION": 86.394, "RA_OF_ASC_NODE": 15.9863, "ARG_OF_PERICENTER": 140.9136, "MEAN_ANOMALY": 279.2911, "EPHEMERIS_TYPE": 0, "CLASSIFICATION_TYPE": "U", "NORAD_CAT_ID": 34486, "ELEMENT_SET_NO": 999, "REV_AT_EPOCH": 88858, "BSTAR": 0.0048037162, "MEAN_MOTION_DOT": 0.00053192, "MEAN_MOTION_DDOT": 0}, "tle": {"line1": "1 34486U 97051GB  25338.15406387  .00053192  00000+0  48037-2 0  9995", "line2": "2 34486  86.3940  15.9863 0013023 140.9136 279.2911 14.95181500888584"}}, "geometry": {"type": "Point", "coordinates": [-164.22846312619953, 0.30858464977682215]}}, {"type": "Feature", "properties": {"norad_id": 34487, "name": "IRIDIUM 33 DEB", "group": "iridium-33-debris", "lat": -70.01515899048981, "lon": 5.766243099921807, "alt_km": 771.5293883290615, "timestamp": "2025-12-04T13:52:00.826785+00:00", "meta": {"OBJECT_NAME": "IRIDIUM 33 DEB", "OBJECT_ID": "1997-051GC", "EPOCH": "2025-12-03T10:12:00.081216", "MEAN_MOTION": 14.43196495, "ECCENTRICITY": 0.00319082, "INCLINATION": 86.3443, "RA_OF_ASC_NODE": 16.3873, "ARG_OF_PERICENTER": 157.9365, "MEAN_ANOMALY": 266.0119, "EPHEMERIS_TYPE": 0, "CLASSIFICATION_TYPE": "U", "NORAD_CAT_ID": 34487, "ELEMENT_SET_NO": 999, "REV_AT_EPOCH": 88114, "BSTAR": 0.00029137047, "MEAN_MOTION_DOT": 1.005e-05, "MEAN_MOTION_DDOT": 0}, "tle": {"line1": "1 34487U 97051GC  25337.42500094  .00001005  00000+0  29137-3 0  9992", "line2": "2 34487  86.3443  16.3873 0031908 157.9365 266.0119 14.43196495881144"}}, "geometry": {"type": "Point", "coordinates": [5.766243099921807, -70.01515899048981]}}, {"type": "Feature", "properties": {"norad_id": 34488, "name": "IRIDIUM 33 DEB", "group": "iridium-33-debris", "lat": -68.85289916748404, "lon": -59.71567434145536, "alt_km": 500.6281808071317, "timestamp": "2025-12-04T13:52:00.826795+00:00", "meta": {"OBJECT_NAME": "IRIDIUM 33 DEB", "OBJECT_ID": "1997-051GD", "EPOCH": "2025-12-04T04:43:46.394400", "MEAN_MOTION": 15.26377687, "ECCENTRICITY": 0.00155256, "INCLINATION": 86.3256, "RA_OF_ASC_NODE": 310.0352, "ARG_OF_PERICENTER": 64.3641, "MEAN_ANOMALY": 295.9208, "EPHEMERIS_TYPE": 0, "CLASSIFICATION_TYPE": "U", "NORAD_CAT_ID": 34488, "ELEMENT_SET_NO": 999, "REV_AT_EPOCH": 89109, "BSTAR": 0.0085126879, "MEAN_MOTION_DOT": 0.00228455, "MEAN_MOTION_DDOT": 0}, "tle": {"line1": "1 34488U 97051GD  25338.19706475  .00228455  00000+0  85127-2 0  9999", "line2": "2 34488  86.3256 310.0352 0015525  64.3641 295.9208 15.26377687891099"}}, "geometry": {"type": "Point", "coordinates": [-59.71567434145536, -68.85289916748404]}}, {"type": "Feature", "properties": {"norad_id": 34492, "name": "IRIDIUM 33 DEB", "group": "iridium-33-debris", "lat": 4.891874078884417, "lon": 157.6264068320979, "alt_km": 806.3344433337988, "timestamp": "2025-12-04T13:52:00.826806+00:00", "meta": {"OBJECT_NAME": "IRIDIUM 33 DEB", "OBJECT_ID": "1997-051GH", "EPOCH": "2025-12-04T06:22:25.669632", "MEAN_MOTION": 14.2534836, "ECCENTRICITY": 0.0190073, "INCLINATION": 86.4709, "RA_OF_ASC_NODE": 338.0551, "ARG_OF_PERICENTER": 265.7011, "MEAN_ANOMALY": 110.4059, "EPHEMERIS_TYPE": 0, "CLASSIFICATION_TYPE": "U", "NORAD_CAT_ID": 34492, "ELEMENT_SET_NO": 999, "REV_AT_EPOCH": 84938, "BSTAR": 0.015697091, "MEAN_MOTION_DOT": 0.00044922, "MEAN_MOTION_DDOT": 0}, "tle": {"line1": "1 34492U 97051GH  25338.26557488  .00044922  00000+0  15697-1 0  9999", "line2": "2 34492  86.4709 338.0551 0190073 265.7011 110.4059 14.25348360849383"}}, "geometry": {"type": "Point", "coordinates": [157.6264068320979, 4.891874078884417]}}, {"type": "Feature", "properties": {"norad_id": 34497, "name": "IRIDIUM 33 DEB", "group": "iridium-33-debris", "lat": 0.14437992205428088, "lon": 55.89711050850933, "alt_km": 746.4309378582466, "timestamp": "2025-12-04T13:52:00.826816+00:00", "meta": {"OBJECT_NAME": "IRIDIUM 33 DEB", "OBJECT_ID": "1997-051GN", "EPOCH": "2025-12-04T05:42:21.206016", "MEAN_MOTION": 14.27416416, "ECCENTRICITY": 0.00797482, "INCLINATION": 86.2784, "RA_OF_ASC_NODE": 56.0329, "ARG_OF_PERICENTER": 7.2272, "MEAN_ANOMALY": 46.8518, "EPHEMERIS_TYPE": 0, "CLASSIFICATION_TYPE": "U", "NORAD_CAT_ID": 34497, "ELEMENT_SET_NO": 999, "REV_AT_EPOCH": 86762, "BSTAR": 0.0011016015, "MEAN_MOTION_DOT": 2.812e-05, "MEAN_MOTION_DDOT": 0}, "tle": {"line1": "1 34497U 97051GN  25338.23774544  .00002812  00000+0  11016-2 0  9999", "line2": "2 34497  86.2784  56.0329 0079748   7.2272  46.8518 14.27416416867621"}}, "geometry": {"type": "Point", "coordinates": [55.89711050850933, 0.14437992205428088]}}, {"type": "Feature", "properties": {"norad_id": 34508, "name": "IRIDIUM 33 DEB", "group": "iridium-33-debris", "lat": -17.657612542244987, "lon": -72.7397422407181, "alt_km": 722.3639101660829, "timestamp": "2025-12-04T13:52:00.826826+00:00", "meta": {"OBJECT_NAME": "IRIDIUM 33 DEB", "OBJECT_ID": "1997-051GZ", "EPOCH": "2025-12-04T07:56:26.471616", "MEAN_MOTION": 14.38300122, "ECCENTRICITY": 0.00655219, "INCLINATION": 86.3699, "RA_OF_ASC_NODE": 106.207, "ARG_OF_PERICENTER": 200.3057, "MEAN_ANOMALY": 159.5535, "EPHEMERIS_TYPE": 0, "CLASSIFICATION_TYPE": "U", "NORAD_CAT_ID": 34508, "ELEMENT_SET_NO": 999, "REV_AT_EPOCH": 87188, "BSTAR": 0.0041043781, "MEAN_MOTION_DOT": 0.00012833, "MEAN_MOTION_DDOT": 0}, "tle": {"line1": "1 34508U 97051GZ  25338.33086194  .00012833  00000+0  41044-2 0  9998", "line2": "2 34508  86.3699 106.2070 0065521 200.3057 159.5535 14.38300122871884"}}, "geometry": {"type": "Point", "coordinates": [-72.7397422407181, -17.657612542244987]}}, {"type": "Feature", "properties": {"norad_id": 34521, "name": "IRIDIUM 33 DEB", "group": "iridium-33-debris", "lat": 3.4828525389380065, "lon": 34.361806706402135, "alt_km": 685.1721563968313, "timestamp": "2025-12-04T13:52:00.826837+00:00", "meta": {"OBJECT_NAME": "IRIDIUM 33 DEB", "OBJECT_ID": "1997-051HN", "EPOCH": "2025-12-04T05:38:41.083008", "MEAN_MOTION": 14.63246221, "ECCENTRICITY": 0.0001091, "INCLINATION": 86.3811, "RA_OF_ASC_NODE": 34.2918, "ARG_OF_PERICENTER": 285.1475, "MEAN_ANOMALY": 74.9616, "EPHEMERIS_TYPE": 0, "CLASSIFICATION_TYPE": "U", "NORAD_CAT_ID": 34521, "ELEMENT_SET_NO": 999, "REV_AT_EPOCH": 88348, "BSTAR": 0.0023484201, "MEAN_MOTION_DOT": 0.0001213, "MEAN_MOTION_DDOT": 0}, "tle": {"line1": "1 34521U 97051HN  25338.23519772  .00012130  00000+0  23484-2 0  9993", "line2": "2 34521  86.3811  34.2918 0001091 285.1475  74.9616 14.63246221883489"}}, "geometry": {"type": "Point", "coordinates": [34.361806706402135, 3.4828525389380065]}}, {"type": "Feature", "properties": {"norad_id": 34525, "name": "IRIDIUM 33 DEB", "group": "iridium-33-debris", "lat": 61.43957080625868, "lon": 57.01773456084222, "alt_km": 740.2664187883884, "timestamp": "2025-12-04T13:52:00.826847+00:00", "meta": {"OBJECT_NAME": "IRIDIUM 33 DEB", "OBJECT_ID": "1997-051HS", "EPOCH": "2025-12-04T05:30:34.735680", "MEAN_MOTION": 14.42873739, "ECCENTRICITY": 0.00064585, "INCLINATION": 86.3736, "RA_OF_ASC_NODE": 50.4756, "ARG_OF_PERICENTER": 114.4855, "MEAN_ANOMALY": 299.6591, "EPHEMERIS_TYPE": 0, "CLASSIFICATION_TYPE": "U", "NORAD_CAT_ID": 34525, "ELEMENT_SET_NO": 999, "REV_AT_EPOCH": 87965, "BSTAR": 0.00074624001, "MEAN_MOTION_DOT": 2.511e-05, "MEAN_MOTION_DDOT": 0}, "tle": {"line1": "1 34525U 97051HS  25338.22956870  .00002511  00000+0  74624-3 0  9995", "line2": "2 34525  86.3736  50.4756 0006458 114.4855 299.6591 14.42873739879656"}}, "geometry": {"type": "Point", "coordinates": [57.01773456084222, 61.43957080625868]}}]}